[{"OBJECT_NAME":"STARLINK-32899","OBJECT_ID":"2025-031P","EPOCH":"2026-03-09T04:26:53.229120","MEAN_MOTION":15.27602946,"ECCENTRICITY":0.00037423,"INCLINATION":42.9974,"RA_OF_ASC_NODE":146.5747,"ARG_OF_PERICENTER":291.0708,"MEAN_ANOMALY":68.9743,"EPHEMERIS_TYPE":0,"CLASSIFICATION_TYPE":"U","NORAD_CAT_ID":62994,"ELEMENT_SET_NO":999,"REV_AT_EPOCH":6101,"BSTAR":0.0010440031,"MEAN_MOTION_DOT":0.00028602,"MEAN_MOTION_DDOT":0},{"OBJECT_NAME":"SL-4 R\/B","OBJECT_ID":"2014-021B","EPOCH":"2026-03-09T02:37:43.173408","MEAN_MOTION":15.39160447,"ECCENTRICITY":0.00975963,"INCLINATION":51.6078,"RA_OF_ASC_NODE":340.109,"ARG_OF_PERICENTER":100.9217,"MEAN_ANOMALY":260.2766,"EPHEMERIS_TYPE":0,"CLASSIFICATION_TYPE":"U","NORAD_CAT_ID":39679,"ELEMENT_SET_NO":999,"REV_AT_EPOCH":65618,"BSTAR":0.00043042763,"MEAN_MOTION_DOT":0.00019652,"MEAN_MOTION_DDOT":0}]
